[{"OBJECT_NAME":"SPAWAR-CAL-R","OBJECT_ID":"2018-099U","EPOCH":"2026-03-08T15:37:40.202400","MEAN_MOTION":15.05212097,"ECCENTRICITY":0.00197014,"INCLINATION":97.4524,"RA_OF_ASC_NODE":111.5817,"ARG_OF_PERICENTER":348.9052,"MEAN_ANOMALY":11.1737,"EPHEMERIS_TYPE":0,"CLASSIFICATION_TYPE":"U","NORAD_CAT_ID":43776,"ELEMENT_SET_NO":999,"REV_AT_EPOCH":39687,"BSTAR":0.00025335573,"MEAN_MOTION_DOT":3.57e-5,"MEAN_MOTION_DDOT":0},{"OBJECT_NAME":"STARLINK-4571","OBJECT_ID":"2022-105AS","EPOCH":"2026-03-09T15:39:25.722720","MEAN_MOTION":15.01261297,"ECCENTRICITY":0.0001573,"INCLINATION":97.6023,"RA_OF_ASC_NODE":310.1668,"ARG_OF_PERICENTER":117.2615,"MEAN_ANOMALY":242.877,"EPHEMERIS_TYPE":0,"CLASSIFICATION_TYPE":"U","NORAD_CAT_ID":53688,"ELEMENT_SET_NO":999,"REV_AT_EPOCH":19323,"BSTAR":-5.541e-5,"MEAN_MOTION_DOT":-7.7e-6,"MEAN_MOTION_DDOT":0}]
